STARLINK-35366          
1 66512U 25263AD  25325.66672454 -.01129049  42552-3 -17213-2 0  9990
2 66512  43.0005 252.4952 0002095 258.1982 118.8515 16.03542628  2248
STARLINK-35692          
1 66513U 25263AE  25325.66672454 -.01133410  42682-3 -17651-2 0  9998
2 66513  43.0008 252.5084 0002111 259.9229 111.9650 16.03188374  2249
SENTINEL-6B             
1 66514U 25264A   25328.11376869  .00000969  00000+0  41754-2 0  9998
2 66514  66.0402 201.3895 0011545 270.8045  89.1650 12.85876429   890
SZ-21 MODULE            
1 66515U 25246C   25327.93137786  .00028971  00000+0  33497-3 0  9990
2 66515  41.4753 130.6686 0004663 134.1309 225.9914 15.61215711  1507
SHIJIAN-30A             
1 66545U 25266A   25328.42361080  .00010944  00000+0  58201-3 0  9997
2 66545  51.7995  58.6490 0012882 291.3596  68.6005 15.15678353   809
SHIJIAN-30B             
1 66546U 25266B   25328.42445301  .00012738  00000+0  67942-3 0  9992
2 66546  51.7976  58.6542 0010567 290.6918  69.2925 15.15445689   807
SHIJIAN-30C             
1 66547U 25266C   25328.42529404  .00009945  00000+0  53800-3 0  9994
2 66547  51.7986  58.6594 0011299 283.8247  76.1472 15.15190096   801
CZ-2C R/B               
1 66548U 25266D   25328.44178190  .00012887  00000+0  40825-3 0  9991
2 66548  52.0564  58.4160 0085307 110.6625 250.3533 15.29600061   811
GLOBAL-33               
1 66554U 25267A   25325.59612889  .00003575  00000+0  12516-3 0  9990
2 66554  42.0189 178.9818 0006750 273.7217  86.2848 15.30949686   165
ELECTRON KICK STAGE R/B 
1 66555U 25267B   25325.59577065  .00003645  00000+0  12531-3 0  9992
2 66555  42.0193 178.9984 0008826 283.6443  76.3411 15.31490022   164
ELECTRON R/B            
1 66556U 25267C   25325.68896391  .00330020  73273-5  18540-3 0  9993
2 66556  42.0620 178.0185 0218594 275.5638  82.0326 15.83492186   186
TJS-21                  
1 66586U 25269A   25326.02704417  .00003197  00000+0  53570-3 0  9990
2 66586  51.0366 174.7096 7517987 225.0489  41.6572  2.00992210    24
